LEMUR-1                 
1 40044U 14033AL  19068.21041097  .00000136  00000-0  27512-4 0  9992
2 40044  97.7725 299.8291 0060513  66.5182 294.2372 14.74063966253638
LEMUR-2-JOEL            
1 40932U 15052C   19063.49790739  .00000858  00000-0  28703-4 0  9993
2 40932   6.0087  81.3501 0013189 121.9881 238.1529 14.77794886185657
LEMUR-2-CHRIS           
1 40933U 15052D   19067.14718533  .00000777  00000-0  17479-4 0  9990
2 40933   6.0103  53.1184 0013941 171.6595 188.3765 14.77951888186219
LEMUR-2-PETER           
1 40935U 15052F   19063.59594053  .00000428  00000-0 -29238-4 0  9996
2 40935   6.0106  91.9915 0009693 101.0728 258.4864 14.77032706185554
LEMUR-2-XIAOQING        
1 41871U 16062C   19068.75191421  .00000651  00000-0  39031-4 0  9992
2 41871  51.6440 323.9761 0006638   5.7072 354.3981 15.25256966127109
LEMUR-2-SOKOLSKY        
1 41872U 16062D   19068.52333371  .00002266  00000-0  10296-3 0  9995
2 41872  51.6867 327.8232 0003216 116.4971 243.6338 15.25013126127055
LEMUR-2-ANUBHAVTHAKUR   
1 41873U 16062E   19068.73659953  .00001580  00000-0  80624-4 0  9997
2 41873  51.6520 332.2387 0003489 314.5765  45.4928 15.22843448126964
LEMUR-2-WINGO           
1 41874U 16062F   19068.02795294  .00000374  00000-0  28606-4 0  9991
2 41874  51.6547 330.2710 0010800 280.3327  79.6434 15.24737149126942
LEMUR-2-SATCHMO         
1 41991U 17008AV  19068.18392139  .00001127  00000-0  49498-4 0  9999
2 41991  97.4144 135.1943 0008770 137.9432 222.2480 15.23961003113759
LEMUR-2-MIA-GRACE       
1 41992U 17008AW  19068.39973015  .00001656  00000-0  69563-4 0  9993
2 41992  97.4157 136.0257 0008653 136.0285 224.1643 15.24836098113824
LEMUR-2-SMITA-SHARAD    
1 41993U 17008AX  19068.17388193  .00001151  00000-0  50226-4 0  9993
2 41993  97.4144 135.3520 0008718 137.4336 222.7579 15.24147776113763
LEMUR-2-SPIRE-MINIONS   
1 41994U 17008AY  19067.63390066  .00001590  00000-0  66992-4 0  9990
2 41994  97.4156 135.1911 0008638 137.6442 222.5464 15.24787985113707
LEMUR-2-RDEATON         
1 41995U 17008AZ  19068.14881925  .00001135  00000-0  49460-4 0  9993
2 41995  97.4146 135.4002 0009429 150.2208 209.9567 15.24210966114446
LEMUR-2-NOGUECORREIG    
1 41996U 17008BA  19068.15600947  .00001483  00000-0  62834-4 0  9994
2 41996  97.4171 135.7974 0009337 149.8119 210.3658 15.24704087113683
LEMUR-2-JOBANPUTRA      
1 41997U 17008BB  19068.22205164  .00001546  00000-0  65005-4 0  9998
2 41997  97.4168 136.0137 0009322 149.0919 211.0869 15.24895795113790
LEMUR-2-TACHIKOMA       
1 41998U 17008BC  19068.77701765  .00001142  00000-0  49879-4 0  9990
2 41998  97.4142 135.9247 0009394 148.7921 211.3876 15.24107167113779
LEMUR-2-ANGELA          
1 42752U 17019B   19068.72208514  .00002177  00000-0  86086-4 0  9990
2 42752  51.6402 254.9058 0010633  79.4923 280.7255 15.30016661 97756
LEMUR-2-JENNYBARNA      
1 42753U 17019C   19068.70807484  .00002870  00000-0  10658-3 0  9991
2 42753  51.6391 252.6168 0010246  81.3075 278.9066 15.30937937 97736
LEMUR-2-ROBMOORE        
1 42754U 17019D   19068.62710983  .00001052  00000-0  48147-4 0  9996
2 42754  51.6402 255.7553 0010606  81.3632 278.8549 15.29917634 97714
LEMUR-2-SPIROVISION     
1 42755U 17019E   19068.54171638  .00001120  00000-0  48953-4 0  9997
2 42755  51.6393 253.6511 0010317  86.8769 304.4608 15.30994953 97628
LEMUR-2-SHAINAJOHL      
1 42771U 17036G   19068.52753925  .00001336  00000-0  61809-4 0  9991
2 42771  97.3659 127.9374 0013905 209.9320 150.1123 15.21789749 94849
LEMUR-2-XUENITERENCE    
1 42772U 17036H   19067.84156116  .00001525  00000-0  69846-4 0  9994
2 42772  97.3644 127.2975 0013373 211.8095 148.2335 15.21931871 94741
LEMUR-2-LUCYBRYCE       
1 42773U 17036J   19068.85059449  .00000736  00000-0  35050-4 0  9991
2 42773  97.3672 128.6072 0013425 206.5774 153.4776 15.22151726 94919
LEMUR-2-KUNGFOO         
1 42774U 17036K   19068.14548236  .00001306  00000-0  60220-4 0  9992
2 42774  97.3659 127.6899 0013296 210.1919 149.8553 15.21936436 94784
LEMUR-2-LYNSEY-SYMO     
1 42779U 17036Q   19068.11831268  .00001779  00000-0  78385-4 0  9999
2 42779  97.3675 128.5450 0011137 217.1500 142.8968 15.23069324 94828
LEMUR-2-LISASAURUS      
1 42780U 17036R   19068.47310433  .00001256  00000-0  57035-4 0  9995
2 42780  97.3663 128.6283 0011205 216.5209 143.5265 15.22579623 94877
LEMUR-2-SAM-AMELIA      
1 42781U 17036S   19067.78717575  .00000775  00000-0  36047-4 0  9992
2 42781  97.3676 128.2007 0011157 218.6206 141.4234 15.22867802 94779
LEMUR-2-MCPEAKE         
1 42782U 17036T   19068.59352616  .00001328  00000-0  59712-4 0  9993
2 42782  97.3671 128.9699 0010881 215.6290 144.4221 15.22812348 94899
LEMUR-2-GREENBERG       
1 42837U 17042N   19068.16047880  .00000322  00000-0  37241-4 0  9994
2 42837  97.5779 325.8055 0014279  40.0224 320.2045 14.91760740 89858
LEMUR-2-ANDIS           
1 42838U 17042P   19068.21781454  .00000340  00000-0  38986-4 0  9990
2 42838  97.5779 325.8810 0014348  39.6513 320.5753 14.91783396 89862
LEMUR-2-MONSON          
1 42839U 17042Q   19067.95946539  .00000153  00000-0  20539-4 0  9995
2 42839  97.5781 325.6093 0014066  40.1591 320.0665 14.91645709 89825
LEMUR-2-FURIAUS         
1 42840U 17042R   19068.24865890  .00000590  00000-0  63707-4 0  9999
2 42840  97.5779 325.9873 0014193  39.3867 320.8382 14.91800332 89863
LEMUR-2-PETERG          
1 42841U 17042S   19068.51583116  .00000404  00000-0  45076-4 0  9991
2 42841  97.5782 326.4086 0013740  36.5737 323.6418 14.92004617 89923
LEMUR-2-DEMBITZ         
1 42842U 17042T   19068.77664202  .00000391  00000-0  43847-4 0  9995
2 42842  97.5779 326.6640 0013809  36.4153 323.8003 14.92029745 89960
LEMUR-2-ZACHARY         
1 42845U 17042W   19068.15627878  .00000202  00000-0  25067-4 0  9993
2 42845  97.5728 325.8660 0014151  41.8023 318.4275 14.92264084 89875
LEMUR-2-ARTFISCHER      
1 42881U 17042BJ  19068.43249969  .00003420  00000-0  93520-4 0  9999
2 42881  96.9540 316.1524 0010745 218.3419 141.7064 15.37951280 92358
LEMUR-2-ROCKETJONAH     
1 43041U 17071E   19068.82998762  .00005063  00000-0  12446-3 0  9997
2 43041  51.6384 181.9208 0000864  57.1736 302.9333 15.42439576 72870
LEMUR-2-YONGLIN         
1 43045U 17071J   19068.85596066  .00006568  00000-0  15500-3 0  9990
2 43045  51.6389 180.6165 0004471 137.1482 222.9853 15.43142984 70615
LEMUR-2-KEVIN           
1 43046U 17071K   19068.78368975  .00004796  00000-0  11950-3 0  9995
2 43046  51.6394 182.3989 0004031 134.1078 226.0240 15.42159021 70596
LEMUR-2-BRIANDAVIE      
1 43047U 17071L   19068.86558157  .00005534  00000-0  13663-3 0  9992
2 43047  51.6381 182.8878 0002817 174.1559 185.9460 15.42108130 70584
LEMUR-2-ROMACOSTE       
1 43048U 17071M   19068.87480037  .00005860  00000-0  14206-3 0  9991
2 43048  51.6390 182.2342 0002868 173.8303 186.2718 15.42548732 70591
LEMUR-2-MCCULLAGH       
1 43051U 17071Q   19068.52059777  .00005854  00000-0  14197-3 0  9992
2 43051  51.6389 183.6127 0000640 330.5210  29.5739 15.42535496 70498
LEMUR-2-DUNLOP          
1 43053U 17071S   19068.12997081  .00005859  00000-0  14551-3 0  9998
2 43053  51.6382 186.9676 0000815 321.7369  38.3558 15.41806394 70426
LEMUR-2-LIU-POU-CHUN    
1 43054U 17071T   19067.93368691  .00005372  00000-0  13177-3 0  9999
2 43054  51.6386 186.4400 0000766  76.2630 283.8441 15.42370905 70411
LEMUR-2-MCCAFFERTY      
1 43123U 18004N   19068.16265932  .00001621  00000-0  70253-4 0  9995
2 43123  97.5007 136.3006 0008350 243.6768 116.3611 15.23833863 64049
LEMUR-2-PETERWEBSTER    
1 43124U 18004P   19068.45315359  .00001716  00000-0  74627-4 0  9991
2 43124  97.5006 136.5263 0008582 241.3869 118.6505 15.23632702 64091
LEMUR-2-BROWNCOW        
1 43125U 18004Q   19068.48313916  .00002030  00000-0  87045-4 0  9990
2 43125  97.5007 136.6316 0008413 242.6529 117.3853 15.23887948 64101
LEMUR-2-DAVEWILSON      
1 43126U 18004R   19067.90262663  .00001923  00000-0  82947-4 0  9995
2 43126  97.5008 136.0364 0008418 245.2626 114.7735 15.23763042 64010
LEMUR-2-MARSHALL        
1 43165U 18010C   19068.18553032  .00001136  00000-0  51600-4 0  9997
2 43165  82.9161 113.3582 0030228 235.4906 124.3475 15.19279405 62541
LEMUR-2-TALLHAMN-ATC    
1 43167U 18010E   19068.34930866  .00001170  00000-0  56572-4 0  9992
2 43167  82.9195 114.4571 0023383 243.7789 116.1042 15.17354903 62493
LEMUR-2-JIN-LUEN        
1 43182U 18014C   19068.28642309  .00000860  00000-0  81426-4 0  9999
2 43182  97.7098 337.5403 0014084 354.5519   5.5547 14.96151367 59940
LEMUR-2-URAMCHANSOL     
1 43183U 18014D   19068.27655116  .00000600  00000-0  58297-4 0  9991
2 43183  97.7094 337.5504 0013967 354.3730   5.7332 14.96194562 59949
LEMUR-2-KADI            
1 43184U 18014E   19067.73539666  .00000328  00000-0  34149-4 0  9990
2 43184  97.7095 337.0336 0014054 356.8196   3.2934 14.96221105 59866
LEMUR-2-THENICKMOLO     
1 43185U 18014F   19068.19774637  .00000153  00000-0  18738-4 0  9993
2 43185  97.7097 337.5023 0013892 355.9987   4.1121 14.96206710 59935
LEMUR-2-VU              
1 43558U 18046E   19068.53275545  .00002391  00000-0  96674-4 0  9995
2 43558  51.6402 181.3014 0008317  73.7320 286.4574 15.28818109 36080
LEMUR-2-ALEXANDER       
1 43559U 18046F   19068.20374434  .00003129  00000-0  12239-3 0  9991
2 43559  51.6404 182.8553 0008357  72.5568 287.6325 15.28882635 35814
LEMUR-2-YUASA           
1 43560U 18046G   19068.73160335  .00002197  00000-0  89830-4 0  9990
2 43560  51.6401 180.3730 0008787  86.9169 273.2816 15.28831455 36110
LEMUR-2-TOMHENDERSON    
1 43561U 18046H   19068.66305558  .00002259  00000-0  91954-4 0  9990
2 43561  51.6401 180.6668 0008694  87.7375 272.4600 15.28854978 35665
LEMUR-2-ZUPANSKI        
1 43695U 18088F   19068.11353948  .00001571  00000-0  71048-4 0  9998
2 43695  85.0346  25.2156 0016153 211.6302 148.3970 15.19951722 17896
